[{"OBJECT_NAME":"STARLINK-31588","OBJECT_ID":"2024-057R","EPOCH":"2026-03-09T08:48:26.667648","MEAN_MOTION":15.27580923,"ECCENTRICITY":5.571e-5,"INCLINATION":42.9984,"RA_OF_ASC_NODE":188.5548,"ARG_OF_PERICENTER":270.0598,"MEAN_ANOMALY":90.019,"EPHEMERIS_TYPE":0,"CLASSIFICATION_TYPE":"U","NORAD_CAT_ID":59335,"ELEMENT_SET_NO":999,"REV_AT_EPOCH":10979,"BSTAR":-3.8829324e-5,"MEAN_MOTION_DOT":-1.33e-5,"MEAN_MOTION_DDOT":0},{"OBJECT_NAME":"ARCSTONE","OBJECT_ID":"2025-135N","EPOCH":"2026-03-09T21:21:29.017152","MEAN_MOTION":15.28638458,"ECCENTRICITY":0.00041199,"INCLINATION":97.4495,"RA_OF_ASC_NODE":185.9194,"ARG_OF_PERICENTER":166.7863,"MEAN_ANOMALY":193.3485,"EPHEMERIS_TYPE":0,"CLASSIFICATION_TYPE":"U","NORAD_CAT_ID":64540,"ELEMENT_SET_NO":999,"REV_AT_EPOCH":3984,"BSTAR":0.00094899777,"MEAN_MOTION_DOT":0.00026427,"MEAN_MOTION_DDOT":0}]
