STARLINK-31588          
1 59335U 24057R   26068.36697532 -.00001330  00000+0 -38829-4 0  9998
2 59335  42.9984 188.5548 0000557 270.0598  90.0190 15.27580923109797
ARCSTONE                
1 64540U 25135N   26068.88991918  .00026427  00000+0  94900-3 0  9995
2 64540  97.4495 185.9194 0004120 166.7863 193.3485 15.28638458 39847
